[{"OBJECT_NAME":"STARLINK-30568","OBJECT_ID":"2023-158A","EPOCH":"2026-03-09T22:00:01.999584","MEAN_MOTION":15.27549841,"ECCENTRICITY":0.00015759,"INCLINATION":43.0037,"RA_OF_ASC_NODE":26.1725,"ARG_OF_PERICENTER":255.5586,"MEAN_ANOMALY":331.1754,"EPHEMERIS_TYPE":0,"CLASSIFICATION_TYPE":"U","NORAD_CAT_ID":58051,"ELEMENT_SET_NO":999,"REV_AT_EPOCH":572,"BSTAR":0.0013657049,"MEAN_MOTION_DOT":0.00037476,"MEAN_MOTION_DDOT":0},{"OBJECT_NAME":"YAOGAN-43 01F","OBJECT_ID":"2024-148F","EPOCH":"2026-03-10T00:23:08.877408","MEAN_MOTION":15.29824616,"ECCENTRICITY":0.00057048,"INCLINATION":34.9925,"RA_OF_ASC_NODE":59.8891,"ARG_OF_PERICENTER":18.4862,"MEAN_ANOMALY":341.6062,"EPHEMERIS_TYPE":0,"CLASSIFICATION_TYPE":"U","NORAD_CAT_ID":60463,"ELEMENT_SET_NO":999,"REV_AT_EPOCH":8707,"BSTAR":0.00058388219,"MEAN_MOTION_DOT":0.00017308,"MEAN_MOTION_DDOT":0}]
